[
    {
        "Altitude(m)": 610405.2843722986,
        "Argument of Periapsis(deg)": 0.0,
        "Eccentricity": 0.0,
        "Inclination(deg)": 60.0,
        "Latitude(deg)": 52.111164922771664,
        "Longitude(deg)": -127.52247919545228,
        "Mean Anomaly(deg)": 114.54549999999999,
        "RAAN(deg)": 200.0,
        "Satellite Name": "Test1 887",
        "Satellite Number": 887,
        "Semi-Major Axis(m)": 6980739.136638005,
        "Time(s)": 0
    },
    {
        "Altitude(m)": 610321.8568408611,
        "Argument of Periapsis(deg)": 0.00010418945913296404,
        "Eccentricity": 0.0,
        "Inclination(deg)": 60.0,
        "Latitude(deg)": 51.745878821158726,
        "Longitude(deg)": -126.75358852680303,
        "Mean Anomaly(deg)": 115.16560614546184,
        "RAAN(deg)": 199.99957995086027,
        "Satellite Name": "Test1 887",
        "Satellite Number": 887,
        "Semi-Major Axis(m)": 6980739.136638005,
        "Time(s)": 10
    }
]